AURA                    
1 28376U 04026A   26192.90937096  .00000409  00000+0  92512-4 0  9996
2 28376  98.3429 149.5696 0001273  92.4619 267.6727 14.61365046169826
CAPELLA-11 (ACADIA-1)   
1 57693U 23126A   26191.27418804  .00002487  00000+0  31727-3 0  9990
2 57693  53.0069  84.6811 0002161 108.2589 251.8626 14.84779502155554
CAPELLA-14 (ACADIA-4)   
1 59444U 24066C   26191.40113345  .00008048  00000+0  51362-3 0  9993
2 59444  45.6019 133.0062 0000256 292.3900  67.6958 15.09192985115991
CAPELLA-13 (ACADIA-3)   
1 60419U 24142A   26192.82227712  .00002436  00000+0  29092-3 0  9993
2 60419  53.0060 310.0351 0001326  91.4802 268.6331 14.87644522104079
CAPELLA-15 (ACADIA-5)   
1 60544U 24149CE  26189.77779346  .00002013  00000+0  20207-3 0  9994
2 60544  97.6776 262.1397 0003386   8.7995 351.3283 14.92382217103076
BIOMASS                 
1 63772U 25090A   26192.85455120  .00000566  00000+0  10836-3 0  9998
2 63772  98.0746  19.8106 0001488  92.0380 268.0995 14.67537912 64306
CAPELLA-17 (ACADIA-7)   
1 64583U 25135BH  26192.82540972  .00003043  00000+0  30871-3 0  9990
2 64583  97.7704 306.0834 0003964 264.8386  95.2380 14.91599654 57524
CAPELLA-16 (ACADIA-6)   
1 65318U 25188D   26192.80547547  .00003369  00000+0  32109-3 0  9995
2 65318  97.7377 267.5879 0005465 145.6698 214.4876 14.94024784 47598
CAPELLA-19 (ACADIA-9)   
1 67384U 26004X   26192.56402564  .00002628  00000+0  30210-3 0  9998
2 67384  97.7969 190.5042 0001544 131.1446 228.9903 14.86644205 26890
CAPELLA-18 (ACADIA-8)   
1 67385U 26004Y   26192.50675976  .00000683  00000+0  83024-4 0  9993
2 67385  97.8089 190.6063 0002155 116.8459 243.2977 14.86638590 26893
